ORBCOMM-X [-]           
1 21576U 91050C   24113.72564662  .00001286  00000+0  40148-3 0  9991
2 21576  98.3927 181.8374 0004119  35.1772 324.9690 14.42457809721482
ORBCOMM FM01 [-]        
1 23545U 95017A   24113.92809264  .00016400  00000+0  21887-2 0  9990
2 23545  69.9699  33.5651 0008685 246.6081 113.4156 14.79607636550129
ORBCOMM FM08 [-]        
1 25112U 97084A   24113.38949695  .00005971  00000+0  18285-2 0  9990
2 25112  45.0131 222.6212 0008506 274.2245  85.7633 14.42410380380717
ORBCOMM FM10 [-]        
1 25113U 97084B   24113.67239715  .00005300  00000+0  16310-2 0  9991
2 25113  45.0146 223.1120 0006659 249.9042 110.1092 14.42330575555734
ORBCOMM FM11 [+]        
1 25114U 97084C   24113.68962247  .00005667  00000+0  17449-2 0  9996
2 25114  45.0136 223.0846 0007605 251.3740 108.6285 14.42213085380707
ORBCOMM FM12 [-]        
1 25115U 97084D   24113.71823984  .00005288  00000+0  16328-2 0  9999
2 25115  45.0143 222.6378 0006515 251.8597 108.1544 14.42172140380502
ORBCOMM FM09 [-]        
1 25116U 97084E   24113.65984847  .00005290  00000+0  16343-2 0  9999
2 25116  45.0149 223.5978 0007614 241.1746 118.8340 14.42140239380702
